Source_URL,Name,Phone_Number,Street,City,State,ZIP,Website
http://www.yellowpages.com//new-york-ny/mip/hydrotech-hvac-llc-469250782?lid=205936416,"Hydrotech & HVAC, LLC",(646) 430-9784,33 Thomas St,"New York,",NY,10007,http://hydrotechny.com
http://www.yellowpages.com//new-york-ny/mip/rr-plumbing-roto-rooter-473546296?lid=1000804684456,RR Plumbing Roto-Rooter,(212) 687-1662,270 W 39th St,"New York,",NY,10018,http://www.rotorooter.com/manhattan/
http://www.yellowpages.com//new-york-ny/mip/star-cities-plumbing-467898969?lid=1000589796262,Star Cities Plumbing,(888) 824-3645,110 Greene St Suite 503,"New York,",NY,10012,http://local.yp.com/Listings/Details.aspx?NUM=a%3a12669676%3a13%3a4859924%3a14%3a0%3a7
http://www.yellowpages.com//new-york-ny/mip/jay-ell-plumbing-and-heat-458538073?lid=1000589569661,Jay Ell Plumbing and Heat,(866) 211-0083,307 7th Ave,"New York,",NY,10001,http://local.yp.com/Listings/Details.aspx?NUM=a%3a11239212%3a13%3a4859924%3a14%3a0%3a7
http://www.yellowpages.com//new-york-ny/mip/air-cooling-energy-co-19810822?lid=1000833766634,Air Cooling Energy Co,(877) 899-6413,319 W 39th St,"New York,",NY,10018,
http://www.yellowpages.com//staten-island-ny/mip/roto-rooter-plumbing-drain-service-451311363?lid=149746529,Roto-Rooter Plumbing & Drain Service,(718) 485-0097,2524 Forest Ave,"Staten Island,",NY,10303,http://www.rotorooter.com/newyork/?cmpid=22472
http://www.yellowpages.com//brooklyn-ny/mip/hydrotech-hvac-llc-1805303?lid=185346824,"Hydrotech & HVAC, LLC",(646) 664-1274,2243 Royce St,"Brooklyn,",NY,11234,http://hydrotechny.com
http://www.yellowpages.com//bronx-ny/mip/pelham-plumbing-heating-5693548?lid=170595459,Pelham Plumbing & Heating,(347) 614-2176,2253 Light St,"Bronx,",NY,10466,http://www.pelhamplumbing.com
http://www.yellowpages.com//nationwide/mip/local-sewer-and-plumbing-495489963?lid=1000365436224,Local Sewer and Plumbing,(917) 391-0082,,,,,http://www.localsewer.com
http://www.yellowpages.com//nationwide/mip/express-plumbing-and-heating-7752544?lid=166113116,Express Plumbing and Heating,(646) 233-2706,,,,,http://4206cd6df62f42cb92a936dc8481dd98.sites.yp.com
http://www.yellowpages.com/http://homeplumbingexperts.com/welcome?category=plumbing&ts=38&placement=diamond&adgroup=plumbing%20contractors,Home Plumbing Experts,(866) 510-7109,,,,,http://homeplumbingexperts.com/welcome?category=plumbing&ts=38&placement=diamond&adgroup=plumbing%20contractors
http://www.yellowpages.com//nationwide/mip/roto-rooter-plumbing-drain-service-464614712?lid=1000802627744,Roto-Rooter Plumbing & Drain Service,(877) 729-7686,,,,,http://www.rotorooter.com/yellowpages/?cmpid=21866
http://www.yellowpages.com//nationwide/mip/service-experts-heating-air-conditioning-483318853?lid=1000738955660,Service Experts Heating & Air Conditioning,(866) 397-5404,,,,,http://www.serviceexperts.com
http://www.yellowpages.com//nationwide/mip/atlas-plumbing-and-meter-works-463336501?lid=1000231029151,Atlas Plumbing and Meter Works,(718) 303-2502,,,,,http://atlasplumbingnyc.com/
http://www.yellowpages.com//brooklyn-ny/mip/first-look-bath-503115914?lid=1000816210627,First Look Bath,(718) 333-5022,8315 5th Ave,"Brooklyn,",NY,11209,http://firstlookcontractingny.com
http://www.yellowpages.com//flushing-ny/mip/als-heating-and-air-inc-472593327?lid=1000642882718,Al's Heating and Air Inc.,(347) 706-4957,2805 172nd St,"Flushing,",NY,11358,http://alsheatingandairinc.com
http://www.yellowpages.com//brooklyn-ny/mip/yellow-construction-inc-505440645?lid=1000890277597,Yellow Construction Inc.,(347) 774-2829,222 Remsen Ave,"Brooklyn,",NY,11212,
http://www.yellowpages.com//brooklyn-ny/mip/econo-sewer-drain-cleaning-service-inc-11834502?lid=138401514,"Econo Sewer & Drain Cleaning Service, Inc.",(800) 287-3266,1282 Ryder St,"Brooklyn,",NY,11234,http://www.econosewer.com
http://www.yellowpages.com//brooklyn-ny/mip/chinese-dify-renovations-474530490?lid=361980910,Chinese DIFY Renovations,(718) 218-3439,6802 15th Ave,"Brooklyn,",NY,11219,http://www.difynyc.com
http://www.yellowpages.com//staten-island-ny/mip/able-plumbing-water-mains-sewers-6627225?lid=1000380180070,Able Plumbing Water Mains & Sewers,(718) 981-5460,40 Lasalle St,"Staten Island,",NY,10303,http://www.ableplumbingny.com
http://www.yellowpages.com//nationwide/mip/call-a-pro-496070181?lid=1000432439707,Call A Pro,(888) 776-3214,,,,,http://www.call-a-pro.com
http://www.yellowpages.com//nationwide/mip/father-son-affordable-sewer-service-inc-483289802?lid=1000292729007,Father & Son Affordable Sewer Service Inc.,(347) 695-3858,,,,,http://www.plumbinganddraincleaningny.com
http://www.yellowpages.com//nationwide/mip/rheem-water-heaters-18222864?lid=1000581342426,Rheem Water Heaters,(888) 426-4998,,,,,http://www.rheem.com/contractors.aspx
http://www.yellowpages.com//nationwide/mip/bj-flooring-18008066?lid=1000466448015,BJ Flooring,(718) 717-8593,,,,,http://www.bjflooringny.com
http://www.yellowpages.com//nationwide/mip/smileys-waterworks-inc-465475145?lid=1000453928292,Smiley's Waterworks Inc.,(718) 474-1293,,,,,http://www.smileyswaterworks.com
http://www.yellowpages.com//nationwide/mip/24-7-sewer-cleaning-nyc-502858412?lid=1000647237822,24/7 Sewer Cleaning NYC,(888) 295-3365,,,,,http://247sewercleaningnyc.com/
http://www.yellowpages.com/http://www.prideinc.com,Pride Industries,(718) 355-8729,,,,,http://www.prideinc.com
http://www.yellowpages.com//nationwide/mip/fred-home-improvement-503934349?lid=1000617287461,Fred Home Improvement,(516) 351-3967,,,,,http://fredyhomeimprove.com
http://www.yellowpages.com//nationwide/mip/nyc-plumbing-sewer-rooter-505294457?lid=1000857216219,NYC Plumbing & Sewer Rooter,(888) 490-3686,,,,,http://nyc.sewercleaning.us
http://www.yellowpages.com//nationwide/mip/mr-rooter-plumbing-503876952?lid=1000594197215,Mr. Rooter Plumbing,(877) 518-0629,,,,,http://local.yp.com/Listings/Details.aspx?NUM=a%3a12983138%3a13%3a4859924%3a14%3a0%3a7
http://www.yellowpages.com//bronx-ny/mip/sure-rooter-21582728?lid=1000935064847,Sure-Rooter,(646) 854-1901,,"Bronx,",NY,10453,http://www.sure-rooterny.com
http://www.yellowpages.com//nationwide/mip/air-pro-hvac-llc-plumbing-heating-air-conditioning-483830644?lid=1000660613859,Air Pro HVAC LLC Plumbing Heating & Air Conditioning,(347) 916-3592,,,,,
http://www.yellowpages.com//oakland-gardens-ny/mip/alex-hvac-r-plumbing-482631503?lid=1000392354325,Alex HVAC-R & Plumbing,(646) 808-0285,22416 67th Ave #505-A,"Oakland Gardens,",NY,11364,
http://www.yellowpages.com//nationwide/mip/48-99-any-sewer-or-drain-service-inc-503128775?lid=1000570492990,$48.99 Any Sewer or Drain Service Inc.,(718) 848-4899,,,,,http://4899asewer.com
http://www.yellowpages.com//nationwide/mip/american-home-service-504000292?lid=1000691474069,American Home Service,(877) 229-2397,,,,,http://www.samedayservice.com/
http://www.yellowpages.com//levittown-pa/mip/victor-sewer-drain-service-504083292?lid=1000788864003,Victor Sewer & Drain Service,(718) 645-6711,,,,,http://www.victorsewer.com
http://www.yellowpages.com//middle-village-ny/mip/four-season-plumbing-480903473?lid=1000589756694,Four Season Plumbing,(888) 837-1185,7414 Caldwell Ave,"Middle Village,",NY,11379,http://local.yp.com/Listings/Details.aspx?NUM=a%3a12001647%3a13%3a4859924%3a14%3a0%3a7
http://www.yellowpages.com//brooklyn-ny/mip/franco-belli-plumbing-4934200?lid=1000589721465,Franco Belli Plumbing,(888) 304-0821,165 2nd Ave,"Brooklyn,",NY,11215,http://local.yp.com/Listings/Details.aspx?NUM=a%3a11481780%3a13%3a4859924%3a14%3a0%3a7
http://www.yellowpages.com//brooklyn-ny/mip/aladdin-plumbing-8298401?lid=1000589721470,Aladdin Plumbing,(888) 304-1273,379 5th Ave,"Brooklyn,",NY,11215,http://local.yp.com/Listings/Details.aspx?NUM=a%3a11481765%3a13%3a4859924%3a14%3a0%3a7
http://www.yellowpages.com//brooklyn-ny/mip/all-mechanical-plumbing-3990494?lid=1000589596888,All Mechanical Plumbing,(866) 457-3690,2771 Atlantic Ave,"Brooklyn,",NY,11207,http://local.yp.com/Listings/Details.aspx?NUM=a%3a11253860%3a13%3a4859924%3a14%3a0%3a7
http://www.yellowpages.com//brooklyn-ny/mip/j-p-plumbing-corp-21736773?lid=1000589749580,J.P. Plumbing Corp.,(877) 300-1620,217 20th St,"Brooklyn,",NY,11232,http://local.yp.com/Listings/Details.aspx?NUM=a%3a11871067%3a13%3a4859924%3a14%3a0%3a7
http://www.yellowpages.com//brooklyn-ny/mip/a-1-sewer-watermain-462448620?lid=1000589713394,A-1 Sewer & Watermain,(866) 241-8497,758 E 98th St,"Brooklyn,",NY,11236,http://local.yp.com/Listings/Details.aspx?NUM=a%3a11358245%3a13%3a4859924%3a14%3a0%3a7
http://www.yellowpages.com//staten-island-ny/mip/r-mcglynn-plumbing-469405937?lid=1000589696964,R. McGlynn Plumbing,(855) 315-0871,355 Hart Ave,"Staten Island,",NY,10310,http://local.yp.com/Listings/Details.aspx?NUM=a%3a11275807%3a13%3a4859924%3a14%3a0%3a7
http://www.yellowpages.com//brooklyn-ny/mip/a-good-plumber-474590850?lid=1000904760958,A Good Plumber,(877) 845-9058,2114 E 27th St,"Brooklyn,",NY,11229,http://local.yp.com/Listings/Details.aspx?NUM=a%3a13287403%3a13%3a4859924%3a14%3a0%3a7
http://www.yellowpages.com//bronx-ny/mip/r-r-475243179?lid=1000589717225,R&R,(877) 343-7131,1227 Ward Ave,"Bronx,",NY,10472,http://local.yp.com/Listings/Details.aspx?NUM=a%3a11430304%3a13%3a4859924%3a14%3a0%3a7
http://www.yellowpages.com//bronx-ny/mip/mr-laca-sewer-drain-472337511?lid=1000589696200,Mr. Laca Sewer & Drain,(888) 892-7954,781 Van Nest Ave,"Bronx,",NY,10462,http://local.yp.com/Listings/Details.aspx?NUM=a%3a11275945%3a13%3a4859924%3a14%3a0%3a7
http://www.yellowpages.com//yonkers-ny/mip/m-fraitag-plumbing-16323255?lid=1000589720812,M. Fraitag Plumbing,(877) 554-4220,141 McLean Ave,"Yonkers,",NY,10705,http://local.yp.com/Listings/Details.aspx?NUM=a%3a11475244%3a13%3a4859924%3a14%3a0%3a7
http://www.yellowpages.com//sea-cliff-ny/mip/okeefe-plumbing-6404067?lid=1000589721380,O'Keefe Plumbing,(888) 457-2504,42 Harbor Way,"Sea Cliff,",NY,11579,http://local.yp.com/Listings/Details.aspx?NUM=a%3a11482169%3a13%3a4859924%3a14%3a0%3a7
http://www.yellowpages.com//ardsley-ny/mip/rubys-plumbing-22534952?lid=1000589610161,Ruby's Plumbing,(877) 297-0448,34 Euclid Ave,"Ardsley,",NY,10502,http://local.yp.com/Listings/Details.aspx?NUM=a%3a11260084%3a13%3a4859924%3a14%3a0%3a7
http://www.yellowpages.com//glen-head-ny/mip/kirk-p-warga-plumbing-12371454?lid=1000589576005,Kirk P. Warga Plumbing,(866) 514-5537,18 Horse Hill Rd,"Glen Head,",NY,11545,http://local.yp.com/Listings/Details.aspx?NUM=a%3a11239464%3a13%3a4859924%3a14%3a0%3a7
http://www.yellowpages.com//ardsley-ny/mip/westchester-plumbing-496574633?lid=1000589796280,Westchester Plumbing,(888) 821-2365,646 Saw Mill River Rd,"Ardsley,",NY,10502,http://local.yp.com/Listings/Details.aspx?NUM=a%3a12669633%3a13%3a4859924%3a14%3a0%3a7
http://www.yellowpages.com//melville-ny/mip/benjamin-franklin-469481021?lid=1000589744301,Benjamin Franklin,(877) 728-9950,PO Box 970,"Melville,",NY,11747,http://local.yp.com/Listings/Details.aspx?NUM=a%3a11802804%3a13%3a4859924%3a14%3a0%3a7
http://www.yellowpages.com//new-rochelle-ny/mip/westchester-custom-474065317?lid=1000589715575,Westchester Custom,(877) 359-0687,PO Box1861,"New Rochelle,",NY,10501,http://local.yp.com/Listings/Details.aspx?NUM=a%3a11417142%3a13%3a4859924%3a14%3a0%3a7
http://www.yellowpages.com//mount-kisco-ny/mip/frank-duffy-son-474375617?lid=1000589721193,Frank Duffy & Son,(888) 261-3198,PO Box 88,"Mount Kisco,",NY,10549,http://local.yp.com/Listings/Details.aspx?NUM=a%3a11478835%3a13%3a4859924%3a14%3a0%3a7
http://www.yellowpages.com//fort-montgomery-ny/mip/yorktown-plumbing-496553780?lid=1000589796950,Yorktown Plumbing,(888) 836-9373,PO Box 574,"Fort Montgomery,",NY,10922,http://local.yp.com/Listings/Details.aspx?NUM=a%3a12669311%3a13%3a4859924%3a14%3a0%3a7
http://www.yellowpages.com//ronkonkoma-ny/mip/mr-rooter-plumbing-of-451904008?lid=1000589598769,Mr. Rooter Plumbing of,(866) 566-5702,,,,,http://local.yp.com/Listings/Details.aspx?NUM=a%3a11251836%3a13%3a4859924%3a14%3a0%3a7
http://www.yellowpages.com//cold-spring-ny/mip/t-webber-plumbing-475241106?lid=1000589731928,T. Webber Plumbing,(866) 404-0827,,,,,http://local.yp.com/Listings/Details.aspx?NUM=a%3a11589048%3a13%3a4859924%3a14%3a0%3a7
http://www.yellowpages.com//east-patchogue-ny/mip/ll-builder-496672036?lid=1000589797518,LL Builder,(888) 837-0546,,,,,http://local.yp.com/Listings/Details.aspx?NUM=a%3a12669213%3a13%3a4859924%3a14%3a0%3a7
http://www.yellowpages.com//dix-hills-ny/mip/eric-von-schmidt-458991030?lid=1000589609693,Eric Von Schmidt,(877) 852-4340,76 Dix Hwy,"Dix Hills,",NY,11746,http://local.yp.com/Listings/Details.aspx?NUM=a%3a11260396%3a13%3a4859924%3a14%3a0%3a7
http://www.yellowpages.com//garnerville-ny/mip/lander-plumbing-472189730?lid=1000589616498,Lander Plumbing,(877) 856-3613,65 N Central Hwy,"Garnerville,",NY,10923,http://local.yp.com/Listings/Details.aspx?NUM=a%3a11256111%3a13%3a4859924%3a14%3a0%3a7
Source_URL,Name,Phone_Number,Street,City,State,ZIP,Website
